CTC1_L_00049016-03
1 10062U 26668DG  26075.70030093  .00000000  00000+0  00000-0 0  9998
2 10062  65.0000 180.0000 0000000   0.0000   0.0000 15.08756051    10
CTC1_L_00049016-04
1 10063U 24523IR  26075.70030093  .00000000  00000+0  00000-0 0  9997
2 10063  65.0000 180.0000 0000000   0.0000  90.0000 15.08756051    10
CTC1_L_00049017-01
1 10064U 23376FI  26075.70030093  .00000000  00000+0  00000-0 0  9993
2 10064  65.0000 192.0000 0000000   0.0000 192.0000 15.08756051    17
CTC1_L_00049017-02
1 10065U 23457YX  26075.70030093  .00000000  00000+0  00000-0 0  9994
2 10065  65.0000 192.0000 0000000   0.0000 282.0000 15.08756051    18
CTC1_L_00049017-03
1 10066U 24509RO  26075.70030093  .00000000  00000+0  00000-0 0  9994
2 10066  65.0000 192.0000 0000000   0.0000  12.0000 15.08756051    10
CTC1_L_00049017-04
1 10067U 26232MW  26075.70030093  .00000000  00000+0  00000-0 0  9990
2 10067  65.0000 192.0000 0000000   0.0000 102.0000 15.08756051    11
CTC1_L_00049018-01
1 10068U 26552IT  26075.70030093  .00000000  00000+0  00000-0 0  9996
2 10068  65.0000 204.0000 0000000   0.0000 204.0000 15.08756051    19
CTC1_L_00049018-02
1 10069U 22170GH  26075.70030093  .00000000  00000+0  00000-0 0  9999
2 10069  65.0000 204.0000 0000000   0.0000 294.0000 15.08756051    19
CTC1_L_00049018-03
1 10070U 25235VY  26075.70030093  .00000000  00000+0  00000-0 0  9996
2 10070  65.0000 204.0000 0000000   0.0000  24.0000 15.08756051    12
CTC1_L_00049018-04
1 10071U 22833RW  26075.70030093  .00000000  00000+0  00000-0 0  9998
2 10071  65.0000 204.0000 0000000   0.0000 114.0000 15.08756051    13
CTC1_L_00049019-01
1 10072U 24387LX  26075.70030093  .00000000  00000+0  00000-0 0  9995
2 10072  65.0000 216.0000 0000000   0.0000 216.0000 15.08756051    10
CTC1_L_00049019-02
1 10073U 24367UT  26075.70030093  .00000000  00000+0  00000-0 0  9994
2 10073  65.0000 216.0000 0000000   0.0000 306.0000 15.08756051    11
CTC1_L_00049019-03
1 10074U 25091CC  26075.70030093  .00000000  00000+0  00000-0 0  9990
2 10074  65.0000 216.0000 0000000   0.0000  36.0000 15.08756051    12
CTC1_L_00049019-04
1 10075U 26323K   26075.70030093  .00000000  00000+0  00000-0 0  9990
2 10075  65.0000 216.0000 0000000   0.0000 126.0000 15.08756051    13
CTC1_L_00049020-01
1 10076U 22557TH  26075.70030093  .00000000  00000+0  00000-0 0  9996
2 10076  65.0000 228.0000 0000000   0.0000 228.0000 15.08756051    10
CTC1_L_00049020-02
1 10077U 25610CG  26075.70030093  .00000000  00000+0  00000-0 0  9990
2 10077  65.0000 228.0000 0000000   0.0000 318.0000 15.08756051    11
CTC1_L_00049020-03
1 10078U 25950SO  26075.70030093  .00000000  00000+0  00000-0 0  9998
2 10078  65.0000 228.0000 0000000   0.0000  48.0000 15.08756051    12
CTC1_L_00049020-04
1 10079U 26812SZ  26075.70030093  .00000000  00000+0  00000-0 0  9997
2 10079  65.0000 228.0000 0000000   0.0000 138.0000 15.08756051    13
CTC1_L_00049021-01
1 10080U 24424KL  26075.70030093  .00000000  00000+0  00000-0 0  9996
2 10080  65.0000 240.0000 0000000   0.0000 240.0000 15.08756051    13
CTC1_L_00049021-02
1 10081U 24786YA  26075.70030093  .00000000  00000+0  00000-0 0  9998
2 10081  65.0000 240.0000 0000000   0.0000 330.0000 15.08756051    14
CTC1_L_00049021-03
1 10082U 26049RT  26075.70030093  .00000000  00000+0  00000-0 0  9993
2 10082  65.0000 240.0000 0000000   0.0000  60.0000 15.08756051    15
CTC1_L_00049021-04
1 10083U 26842PJ  26075.70030093  .00000000  00000+0  00000-0 0  9995
2 10083  65.0000 240.0000 0000000   0.0000 150.0000 15.08756051    16
CTC1_L_00049022-01
1 10084U 23255UL  26075.70030093  .00000000  00000+0  00000-0 0  9991
2 10084  65.0000 252.0000 0000000   0.0000 252.0000 15.08756051    13
CTC1_L_00049022-02
1 10085U 24595ZJ  26075.70030093  .00000000  00000+0  00000-0 0  9990
2 10085  65.0000 252.0000 0000000   0.0000 342.0000 15.08756051    14
CTC1_L_00049022-03
1 10086U 23145QQ  26075.70030093  .00000000  00000+0  00000-0 0  9991
2 10086  65.0000 252.0000 0000000   0.0000  72.0000 15.08756051    15
CTC1_L_00049022-04
1 10087U 24361QY  26075.70030093  .00000000  00000+0  00000-0 0  9993
2 10087  65.0000 252.0000 0000000   0.0000 162.0000 15.08756051    16
CTC1_L_00049023-01
1 10088U 24778PI  26075.70030093  .00000000  00000+0  00000-0 0  9996
2 10088  65.0000 264.0000 0000000   0.0000 264.0000 15.08756051    13
CTC1_L_00049023-02
1 10089U 26397LH  26075.70030093  .00000000  00000+0  00000-0 0  9996
2 10089  65.0000 264.0000 0000000   0.0000 354.0000 15.08756051    14
CTC1_L_00049023-03
1 10090U 26856FL  26075.70030093  .00000000  00000+0  00000-0 0  9998
2 10090  65.0000 264.0000 0000000   0.0000  84.0000 15.08756051    16
CTC1_L_00049023-04
1 10091U 22562QC  26075.70030093  .00000000  00000+0  00000-0 0  9999
2 10091  65.0000 264.0000 0000000   0.0000 174.0000 15.08756051    17
CTC1_L_00049024-01
1 10092U 22277OV  26075.70030093  .00000000  00000+0  00000-0 0  9993
2 10092  65.0000 276.0000 0000000   0.0000 276.0000 15.08756051    14
CTC1_L_00049024-02
1 10093U 25531TV  26075.70030093  .00000000  00000+0  00000-0 0  9990
2 10093  65.0000 276.0000 0000000   0.0000   6.0000 15.08756051    16
CTC1_L_00049024-03
1 10094U 23261AF  26075.70030093  .00000000  00000+0  00000-0 0  9999
2 10094  65.0000 276.0000 0000000   0.0000  96.0000 15.08756051    16
CTC1_L_00049024-04
1 10095U 25588VH  26075.70030093  .00000000  00000+0  00000-0 0  9994
2 10095  65.0000 276.0000 0000000   0.0000 186.0000 15.08756051    17
CTC1_L_00049025-01
1 10096U 24765EU  26075.70030093  .00000000  00000+0  00000-0 0  9991
2 10096  65.0000 288.0000 0000000   0.0000 288.0000 15.08756051    14
CTC1_L_00049025-02
1 10097U 26109KO  26075.70030093  .00000000  00000+0  00000-0 0  9996
2 10097  65.0000 288.0000 0000000   0.0000  18.0000 15.08756051    16
CTC1_L_00049025-03
1 10098U 25300BX  26075.70030093  .00000000  00000+0  00000-0 0  9999
2 10098  65.0000 288.0000 0000000   0.0000 108.0000 15.08756051    17
CTC1_L_00049025-04
1 10099U 25456AQ  26075.70030093  .00000000  00000+0  00000-0 0  9992
2 10099  65.0000 288.0000 0000000   0.0000 198.0000 15.08756051    17
CTC1_L_00049026-01
1 10100U 24833BI  26075.70030093  .00000000  00000+0  00000-0 0  9993
2 10100  65.0000 300.0000 0000000   0.0000 300.0000 15.08756051    10
CTC1_L_00049026-02
1 10101U 22961TU  26075.70030093  .00000000  00000+0  00000-0 0  9994
2 10101  65.0000 300.0000 0000000   0.0000  30.0000 15.08756051    11
CTC1_L_00049026-03
1 10102U 24905VJ  26075.70030093  .00000000  00000+0  00000-0 0  9995
2 10102  65.0000 300.0000 0000000   0.0000 120.0000 15.08756051    12
CTC1_L_00049026-04
1 10103U 22209TO  26075.70030093  .00000000  00000+0  00000-0 0  9991
2 10103  65.0000 300.0000 0000000   0.0000 210.0000 15.08756051    13
CTC1_L_00049027-01
1 10104U 24483OI  26075.70030093  .00000000  00000+0  00000-0 0  9998
2 10104  65.0000 312.0000 0000000   0.0000 312.0000 15.08756051    10
CTC1_L_00049027-02
1 10105U 23652WM  26075.70030093  .00000000  00000+0  00000-0 0  9996
2 10105  65.0000 312.0000 0000000   0.0000  42.0000 15.08756051    11
CTC1_L_00049027-03
1 10106U 22270TO  26075.70030093  .00000000  00000+0  00000-0 0  9992
2 10106  65.0000 312.0000 0000000   0.0000 132.0000 15.08756051    12
CTC1_L_00049027-04
1 10107U 23127NS  26075.70030093  .00000000  00000+0  00000-0 0  9995
2 10107  65.0000 312.0000 0000000   0.0000 222.0000 15.08756051    13
CTC1_L_00049028-01
1 10108U 22266JZ  26075.70030093  .00000000  00000+0  00000-0 0  9999
2 10108  65.0000 324.0000 0000000   0.0000 324.0000 15.08756051    10
CTC1_L_00049028-02
1 10109U 23370LW  26075.70030093  .00000000  00000+0  00000-0 0  9997
2 10109  65.0000 324.0000 0000000   0.0000  54.0000 15.08756051    11
CTC1_L_00049028-03
1 10110U 26873QP  26075.70030093  .00000000  00000+0  00000-0 0  9990
2 10110  65.0000 324.0000 0000000   0.0000 144.0000 15.08756051    13
CTC1_L_00049028-04
1 10111U 24096OB  26075.70030093  .00000000  00000+0  00000-0 0  9996
2 10111  65.0000 324.0000 0000000   0.0000 234.0000 15.08756051    14
CTC1_L_00049029-01
1 10112U 26012SN  26075.70030093  .00000000  00000+0  00000-0 0  9997
2 10112  65.0000 336.0000 0000000   0.0000 336.0000 15.08756051    11
CTC1_L_00049029-02
1 10113U 22949RQ  26075.70030093  .00000000  00000+0  00000-0 0  9993
2 10113  65.0000 336.0000 0000000   0.0000  66.0000 15.08756051    12
CTC1_L_00049029-03
1 10114U 24373DV  26075.70030093  .00000000  00000+0  00000-0 0  9997
2 10114  65.0000 336.0000 0000000   0.0000 156.0000 15.08756051    13
CTC1_L_00049029-04
1 10115U 24710EA  26075.70030093  .00000000  00000+0  00000-0 0  9993
2 10115  65.0000 336.0000 0000000   0.0000 246.0000 15.08756051    14
CTC1_L_00049030-01
1 10116U 25151HR  26075.70030093  .00000000  00000+0  00000-0 0  9994
2 10116  65.0000 348.0000 0000000   0.0000 348.0000 15.08756051    11
CTC1_L_00049030-02
1 10117U 22568PM  26075.70030093  .00000000  00000+0  00000-0 0  9994
2 10117  65.0000 348.0000 0000000   0.0000  78.0000 15.08756051    12
CTC1_L_00049030-03
1 10118U 22163OZ  26075.70030093  .00000000  00000+0  00000-0 0  9996
2 10118  65.0000 348.0000 0000000   0.0000 168.0000 15.08756051    13
CTC1_L_00049030-04
1 10119U 24315OG  26075.70030093  .00000000  00000+0  00000-0 0  9998
2 10119  65.0000 348.0000 0000000   0.0000 258.0000 15.08756051    14
